NOAA 2 (ITOS-D)
1 06235U 72082A   26006.29917649 -.00000030  00000-0  10285-3 0  9999
2 06235 102.0184  23.0365 0004211 119.8813 251.5147 12.53209543434675
SOLRAD-7B
1 01291U 65016D   26005.98602952  .00000017  00000-0  51238-4 0  9996
2 01291  70.0779 221.1021 0022389 327.3447  32.6273 13.94951298 94083
OSCAR-7 (AO-7)
1 07530U 74089B   26006.30228574 -.00000046  00000-0 -32487-6 0  9990
2 07530 101.9964  17.8278 0012394  80.5630 292.8108 12.53694866340233
UOSAT-2 (UO-11)
1 14781U 84021B   26006.16773009  .00002153  00000-0  22749-3 0  9991
2 14781  97.7843 333.8217 0007916  12.1148 348.0259 14.90246381232992
FLTSATCOM-7 (USA-20)
1 17181U 86096A   26005.73872613 -.00000254  00000-0  00000-0 0  9999
2 17181  12.8321 341.1051 0043708 323.9959  42.3669  0.98930458150365
FLTSATCOM-8 (USA-46)
1 20253U 89077A   26006.32177238 -.00000370  00000-0  00000-0 0  9991
2 20253  12.4657 352.1341 0008511 303.3177  52.0272  1.00276744258933
OSCAR 16 (PACSAT)
1 20439U 90005D   26006.06945831  .00000206  00000-0  90620-4 0  9991
2 20439  98.8721  37.7910 0010400 353.0194  31.1864 14.33872373878706
LUSAT (LO-19)
1 20442U 90005G   26006.31540889  .00000208  00000-0  91286-4 0  9998
2 20442  98.8953  23.5761 0010946 325.1881  34.8586 14.34057481879193
UFO 2 (USA 95)
1 22787U 93056A   26006.17704459  .00000121  00000-0  00000-0 0  9994
2 22787  11.8383   4.4311 0007411 300.8911 252.8785  1.00272612116927
EYESAT-1 (AO-27)
1 22825U 93061C   26006.12337759  .00000188  00000-0  88807-4 0  9991
2 22825  98.7109  73.4446 0007868 209.6018 150.4720 14.30887730683825
ITAMSAT (IO-26) 
1 22826U 93061D   26006.15081539  .00000217  00000-0  98743-4 0  9990
2 22826  98.7056  73.3735 0008671 192.9449 167.1513 14.31309622684132
UFO 3 (USA 104)
1 23132U 94035A   26005.74219282 -.00000080  00000-0  00000-0 0  9999
2 23132  12.2943   6.6848 0006751 269.2877  90.3435  1.00261685130069
RADIO ROSTO (RS-15)
1 23439U 94085A   26006.25840933 -.00000064  00000-0 -62010-3 0  9999
2 23439  64.8118 205.0984 0150629  33.8921 327.1519 11.27583472277642
UFO 4 (USA 108)
1 23467U 95003A   26005.77755306 -.00000026  00000-0  00000-0 0  9991
2 23467   9.6673  13.7614 0003199 268.9235 274.8190  1.00273740113329
UFO 7 (USA 127)
1 23967U 96042A   26005.80987992 -.00000208  00000-0  00000-0 0  9994
2 23967  10.9592  17.9475 0003407 145.0640 209.3016  1.00257054107858
JAS-2 (FO-29)
1 24278U 96046B   26006.17234772 -.00000018  00000-0  16220-4 0  9990
2 24278  98.5449 237.0252 0350326 156.5882 205.1654 13.53264299451253
UFO 8 (USA 138)
1 25258U 98016A   26006.10258162 -.00000241  00000-0  00000-0 0  9993
2 25258  10.9337  23.7336 0008667 261.4699   4.2845  1.00299382102230
TECHSAT-1B (GO-32)
1 25397U 98043D   26006.22239360  .00000122  00000-0  72936-4 0  9997
2 25397  98.9943 355.0025 0001100  10.7177 349.4024 14.24385685428270
ISS (ZARYA)
1 25544U 98067A   26006.24223504  .00010833  00000-0  20347-3 0  9990
2 25544  51.6328  21.1584 0007565 346.4032  13.6751 15.49129493546659
UFO 10 (USA 146)
1 25967U 99063A   26005.88151265 -.00000193  00000-0  00000-0 0  9999
2 25967   9.8313  28.0595 0006693 257.6318 114.1805  1.00270147 95725
PCSAT (NO-44)
1 26931U 01043C   26006.18367980  .00000291  00000-0  13950-3 0  9998
2 26931  67.0519 303.2643 0007338 268.5142  91.5119 14.31872764267252
PROBA-1
1 26958U 01049B   26006.26959828  .00003822  00000-0  25385-3 0  9998
2 26958  97.9599   9.2397 0054851 311.4668  48.1855 15.06642852319230
SAUDISAT-1C (SO-50)
1 27607U 02058C   26006.15835374  .00002178  00000-0  27636-3 0  9992
2 27607  64.5535 270.1214 0073170 292.0278  67.3066 14.82519813240430
CUTE-1 (CO-55)
1 27844U 03031E   26005.96850030  .00000506  00000-0  23849-3 0  9996
2 27844  98.6762  16.5588 0008679 299.9908  60.0409 14.24205054168588
CUBESAT XI-IV (CO-57)
1 27848U 03031J   26005.94681037  .00000422  00000-0  20495-3 0  9998
2 27848  98.6793  16.3804 0008775 319.7774  40.2755 14.23509205168290
MOZHAYETS-4 (RS-22)
1 27939U 03042A   26006.31195780  .00001454  00000-0  23413-3 0  9997
2 27939  98.3367 186.1677 0012439  64.1043  58.5477 14.73054266191714
UFO 11 (USA 174)
1 28117U 03057A   26006.11499413 -.00000107  00000-0  00000-0 0  9999
2 28117   8.7837  34.5989 0004540 242.0044 306.0082  1.00269992 80826
CUBESAT XI-V (CO-58)
1 28895U 05043F   26006.32146385  .00002249  00000-0  36604-3 0  9999
2 28895  98.2740 158.8206 0014291   3.5331 356.5974 14.72017305 77931
CAPE-1
1 31130U 07012P   26006.19047279  .00001831  00000-0  33974-3 0  9993
2 31130  98.4268 336.5910 0083365 216.1639 143.3909 14.64329009994635
CUTE-1.7+APD II (CO-65)
1 32785U 08021C   26006.20278932  .00007555  00000-0  50264-3 0  9995
2 32785  97.8122 344.6474 0008147 209.3515 150.7255 15.07419896960777
SEEDS-II (CO-66)
1 32791U 08021J   26006.23559786  .00019305  00000-0  74611-3 0  9992
2 32791  97.7461 357.2422 0004624 130.6531 229.5109 15.26278122962537
YUBILEINY (RS-30)
1 32953U 08025A   26006.33699875  .00000072  00000-0  44789-3 0  9995
2 32953  82.5037  96.1263 0018317 305.7378  54.1998 12.43172940799586
KKS-1 (KISEKI)
1 33499U 09002H   26006.31037545  .00002233  00000-0  28453-3 0  9996
2 33499  98.1191 286.2680 0009436  93.6932 266.5360 14.82548099912207
SWISSCUBE
1 35932U 09051B   26006.27236492  .00001676  00000-0  34368-3 0  9993
2 35932  98.4142 271.2948 0007047   7.1449 352.9850 14.62048684865495
BEESAT
1 35933U 09051C   26006.26923483  .00001414  00000-0  29593-3 0  9990
2 35933  98.4070 271.2556 0005861  23.2752 336.8712 14.61354815865537
ITUPSAT-1
1 35935U 09051E   26006.25677890  .00001406  00000-0  30239-3 0  9999
2 35935  98.4165 270.5986 0008141  28.7718 331.3929 14.60103124865106
PROBA-2
1 36037U 09059B   26006.26777605  .00000441  00000-0  11336-3 0  9992
2 36037  98.2379 191.8905 0014201  63.1779 297.0868 14.54735931857982
XIWANG-1 (HOPE-1)
1 36122U 09072B   26006.28947091  .00000156  00000-0  52363-3 0  9990
2 36122 100.3816 322.8746 0006926 242.4008 117.6402 13.16434900771704
EWS-G2 (GOES-15)
1 36411U 10008A   26006.18345797  .00000038  00000-0  00000-0 0  9993
2 36411   0.8740  85.9911 0005685 185.6438 321.5116  1.00272229 58016
TISAT-1
1 36799U 10035E   26006.07186426  .00022174  00000-0  90151-3 0  9996
2 36799  98.0618 299.2711 0005033  89.5322 270.6490 15.24554990842948
HORYU-2
1 38340U 12025D   26006.31296034  .00004485  00000-0  47426-3 0  9997
2 38340  98.1970 133.0137 0008297 358.8244   1.2952 14.89721894724614
AAUSAT-3
1 39087U 13009B   26006.26100173  .00001066  00000-0  35438-3 0  9993
2 39087  98.3639 193.7733 0011203 343.3906  16.6914 14.39665905673871
STRAND-1
1 39090U 13009E   26006.24857253  .00000480  00000-0  17621-3 0  9996
2 39090  98.3828 190.5132 0008672   2.3743 357.7483 14.37030850673806
CUBEBUG-1 (CAPITAN BETO)
1 39153U 13018D   26006.31221824  .00005179  00000-0  46769-3 0  9998
2 39153  98.1445 159.4025 0011325 329.6955  30.3609 14.95919440686851
PROBA-V
1 39159U 13021A   26006.18089252  .00000108  00000-0  65206-4 0  9995
2 39159  98.3409 352.9425 0003113 240.2277 119.8594 14.23555328658064
ZACUBE-1 (TSHEPISOSAT)
1 39417U 13066B   25364.54616869  .00009097  00000-0  73614-3 0  9994
2 39417  97.8052 321.1188 0042389  90.5123 270.0957 14.99273357655441
TRITON-1
1 39427U 13066M   26006.30874889  .00004886  00000-0  59675-3 0  9993
2 39427  97.8325 279.8442 0092937  42.3514 318.4824 14.80678957650125
DELFI-N3XT
1 39428U 13066N   26006.28657145  .00010571  00000-0  97706-3 0  9990
2 39428  97.8355 287.0489 0079663  25.7443 334.7708 14.92340041650459
GOMX-1
1 39430U 13066Q   26006.29246777  .00003383  00000-0  51926-3 0  9996
2 39430  97.6577 216.8840 0128828 237.1078 121.7679 14.68751963646142
HUMSAT-D
1 39433U 13066T   26006.26591955  .00137341  00000-0  14337-2 0  9993
2 39433  97.4985  14.2328 0009654  82.8057 277.4299 15.63999949661614
VELOX-PII
1 39438U 13066Y   25351.41070081  .00003409  00000-0  33591-3 0  9990
2 39438  97.8533 297.9975 0052986 223.7403 135.9612 14.91683963650720
CUBEBUG-2 (LO-74)
1 39440U 13066AA  26004.40607129  .00006423  00000-0  61521-3 0  9990
2 39440  97.8740 313.0554 0058326 208.6317 151.1696 14.92226975652558
FUNCUBE-1 (AO-73)
1 39444U 13066AE  26006.16930575  .00011726  00000-0  78334-3 0  9995
2 39444  97.8101 334.7583 0039986  37.0709 323.3267 15.06495739655243
UWE-3
1 39446U 13066AG  26005.77945898  .00005678  00000-0  50638-3 0  9993
2 39446  97.8515 321.1529 0051501 139.3403 221.1681 14.95361224653294
UNISAT-6
1 40012U 14033C   26006.30919771  .00005332  00000-0  59006-3 0  9995
2 40012  97.7634 162.2140 0045021 241.3503 118.3182 14.87033239622094
DUCHIFAT-1
1 40021U 14033M   26006.05146963  .00043465  00000-0  98858-3 0  9999
2 40021  98.0742  45.4353 0005046 306.1717  53.9061 15.42853252630597
FUNCUBE-3 (EO-79)
1 40025U 14033R   26006.26050203  .00011523  00000-0  61919-3 0  9995
2 40025  98.0972   6.4211 0011103  64.8161 295.4220 15.15028728628485
SMAP
1 40376U 15003A   26006.30236042  .00000745  00000-0  15314-3 0  9996
2 40376  98.1291  15.6727 0001304  94.4321 265.7030 14.63383806583945
LILACSAT-2
1 40908U 15049K   26006.34574991  .00016306  00000-0  33978-3 0  9995
2 40908  97.4882  37.4950 0009520 115.0288 245.1951 15.45616846570702
LAPAN-A2 (IO-86)
1 40931U 15052B   25151.18580175  .00001241  00000-0  78118-4 0  9996
2 40931   6.0006  24.0987 0012733 338.8432  21.1169 14.78805930523159
LQSAT
1 40958U 15057A   26006.25472300  .00001053  00000-0  15762-3 0  9994
2 40958  97.6607   7.7502 0018646  78.8478 281.4828 14.76501664551410
PRATHAM
1 41783U 16059A   26006.25804741  .00001243  00000-0  22910-3 0  9996
2 41783  97.8273  10.3089 0031828  16.9322 343.2937 14.66892679495778
ALSAT-1N
1 41789U 16059G   26006.29137096  .00001675  00000-0  29274-3 0  9997
2 41789  97.8010  16.8894 0025881 349.0111  11.0526 14.68944406496230
